NORAD_CAT_ID,OBJECT_NAME,OBJECT_TYPE,EPOCH,MEAN_MOTION,ECCENTRICITY,INCLINATION,RA_OF_ASC_NODE,ARG_OF_PERICENTER,MEAN_ANOMALY,BSTAR,MEAN_MOTION_DOT,MEAN_MOTION_DDOT,TLE_LINE0,TLE_LINE1,TLE_LINE2,SEMIMAJOR_AXIS,PERIOD,APOGEE,PERIGEE,DECAYED
53601.0,STARLINK-4675,PAYLOAD,2023-08-29 22:39:23,15.08851017,0.0001026,53.2164,66.3422,96.2724,263.8385,0.0004562,6.982e-05,0.0,0 STARLINK-4675,1 53601U 22104P   23241.94401641  .00006982  00000-0  45620-3 0  9990,2 53601  53.2164  66.3422 0001026  96.2724 263.8385 15.08851017 55629,6917.847,95.437,540.421,539.002,0.0
53601.0,STARLINK-4675,PAYLOAD,2023-08-30 16:08:37,15.08848973,8.75e-05,53.2171,63.073,91.6359,268.4733,-7.8707e-06,-4.13e-06,0.0,0 STARLINK-4675,1 53601U 22104P   23242.67265326 -.00000413  00000-0 -78707-5 0  9998,2 53601  53.2171  63.0730 0000875  91.6359 268.4733 15.08848973 55734,6917.853,95.437,540.323,539.113,0.0
53601.0,STARLINK-4675,PAYLOAD,2023-08-30 19:19:23,15.08849337,8.36e-05,53.2169,62.4782,86.9269,273.1819,-1.2419e-06,-3.07e-06,0.0,0 STARLINK-4675,1 53601U 22104P   23242.80513230 -.00000307  00000-0 -12419-5 0  9993,2 53601  53.2169  62.4782 0000836  86.9269 273.1819 15.08849337 56447,6917.852,95.437,540.295,539.139,0.0
53601.0,STARLINK-4675,PAYLOAD,2023-08-31 00:05:32,15.088579,9e-05,53.216,61.584,103.5963,256.5129,0.00010807,1.433e-05,0.0,0 STARLINK-4675,1 53601U 22104P   23243.00384554  .00001433  00000-0  10807-3 0  9997,2 53601  53.2160  61.5840 0000900 103.5963 256.5129 15.08857900 55782,6917.826,95.436,540.313,539.068,0.0
53601.0,STARLINK-4675,PAYLOAD,2023-08-31 11:13:14,15.08846405,0.0001765,53.2168,59.4992,91.6717,268.4477,1.201e-06,-2.69e-06,0.0,0 STARLINK-4675,1 53601U 22104P   23243.46753086 -.00000269  00000-0  12010-5 0  9994,2 53601  53.2168  59.4992 0001765  91.6717 268.4477 15.08846405 55852,6917.861,95.437,540.947,538.505,0.0
53601.0,STARLINK-4675,PAYLOAD,2023-08-31 20:45:33,15.08842997,0.0001438,53.2156,57.7154,124.2852,235.8277,-6.9893e-05,-1.4e-05,0.0,0 STARLINK-4675,1 53601U 22104P   23243.86496704 -.00001400  00000-0 -69893-4 0  9998,2 53601  53.2156  57.7154 0001438 124.2852 235.8277 15.08842997 56602,6917.871,95.437,540.731,538.741,0.0
53601.0,STARLINK-4675,PAYLOAD,2023-09-01 04:42:29,15.08826328,0.0001356,53.2167,56.2303,85.8623,274.2524,-0.00027961,-4.733e-05,0.0,0 STARLINK-4675,1 53601U 22104P   23244.19617753 -.00004733  00000-0 -27961-3 0  9995,2 53601  53.2167  56.2303 0001356  85.8623 274.2524 15.08826328 55961,6917.922,95.438,540.725,538.849,0.0
53601.0,STARLINK-4675,PAYLOAD,2023-09-01 20:36:22,15.08811713,0.0001077,53.2164,53.2579,87.852,272.2595,-0.00029645,-4.999e-05,0.0,0 STARLINK-4675,1 53601U 22104P   23244.85859245 -.00004999  00000-0 -29645-3 0  9997,2 53601  53.2164  53.2579 0001077  87.8520 272.2595 15.08811713 56754,6917.967,95.439,540.577,539.087,0.0
53601.0,STARLINK-4675,PAYLOAD,2023-09-02 10:54:50,15.08836792,6.1e-05,53.2173,50.5799,100.1918,259.9143,0.00036719,5.56e-05,0.0,0 STARLINK-4675,1 53601U 22104P   23245.45475017  .00005560  00000-0  36719-3 0  9998,2 53601  53.2173  50.5799 0000610 100.1918 259.9143 15.08836792 56159,6917.89,95.438,540.177,539.333,0.0
53601.0,STARLINK-4675,PAYLOAD,2023-09-02 20:27:09,15.0888919,7.39e-05,53.2177,48.7964,77.1206,282.9869,0.0027688,0.00044113,0.0,0 STARLINK-4675,1 53601U 22104P   23245.85218778  .00044113  00000-0  27688-2 0  9992,2 53601  53.2177  48.7964 0000739  77.1206 282.9869 15.08889190 56905,6917.73,95.434,540.106,539.084,0.0
53601.0,STARLINK-4675,PAYLOAD,2023-09-02 22:02:32,15.08891377,7.45e-05,53.2176,48.4993,69.6117,290.4955,0.0030336,0.00048391,0.0,0 STARLINK-4675,1 53601U 22104P   23245.91842668  .00048391  00000-0  30336-2 0  9996,2 53601  53.2176  48.4993 0000745  69.6117 290.4955 15.08891377 56222,6917.723,95.434,540.104,539.073,0.0
53601.0,STARLINK-4675,PAYLOAD,2023-09-03 04:24:04,15.08866812,8.36e-05,53.2196,47.312,46.5726,313.5335,0.00099001,0.00015515,0.0,0 STARLINK-4675,1 53601U 22104P   23246.18338558  .00015515  00000-0  99001-3 0  9991,2 53601  53.2196  47.3120 0000836  46.5726 313.5335 15.08866812 56264,6917.798,95.436,540.242,539.085,0.0
53601.0,STARLINK-4675,PAYLOAD,2023-09-03 17:07:09,15.08869367,7.54e-05,53.2181,44.9307,72.8814,287.226,0.00074761,0.0001164,0.0,0 STARLINK-4675,1 53601U 22104P   23246.71329941  .00011640  00000-0  74761-3 0  9997,2 53601  53.2181  44.9307 0000754  72.8814 287.2260 15.08869367 56348,6917.791,95.436,540.177,539.134,0.0
53601.0,STARLINK-4675,PAYLOAD,2023-09-04 10:36:23,15.08847973,0.0002282,53.2162,41.6606,76.7618,283.3629,0.00089788,0.00014034,0.0,0 STARLINK-4675,1 53601U 22104P   23247.44194031  .00014034  00000-0  89788-3 0  9993,2 53601  53.2162  41.6606 0002282  76.7618 283.3629 15.08847973 56453,6917.856,95.437,541.3,538.142,0.0
53601.0,STARLINK-4675,PAYLOAD,2023-09-04 21:44:05,15.0884782,9.19e-05,53.2176,39.579,89.9166,270.1932,0.00063557,9.844e-05,0.0,0 STARLINK-4675,1 53601U 22104P   23247.90561729  .00009844  00000-0  63557-3 0  9995,2 53601  53.2176  39.5790 0000919  89.9166 270.1932 15.08847820 56527,6917.856,95.437,540.357,539.086,0.0
53601.0,STARLINK-4675,PAYLOAD,2023-09-06 02:21:01,15.08855167,0.0001197,53.2187,34.2263,80.0481,280.0646,0.00081604,0.00012729,0.0,0 STARLINK-4675,1 53601U 22104P   23249.09793826  .00012729  00000-0  81604-3 0  9991,2 53601  53.2187  34.2263 0001197  80.0481 280.0646 15.08855167 56702,6917.834,95.437,540.527,538.871,0.0
53601.0,STARLINK-4675,PAYLOAD,2023-09-06 08:42:34,15.08856715,0.0002491,53.2181,33.0368,71.3567,288.7695,0.00068709,0.00010669,0.0,0 STARLINK-4675,1 53601U 22104P   23249.36290136  .00010669  00000-0  68709-3 0  9999,2 53601  53.2181  33.0368 0002491  71.3567 288.7695 15.08856715 57435,6917.829,95.436,541.418,537.971,0.0
53601.0,STARLINK-4675,PAYLOAD,2023-09-07 02:11:48,15.08837014,7.33e-05,53.2194,29.7662,103.0609,257.0465,1.3871e-05,-6.7e-07,0.0,0 STARLINK-4675,1 53601U 22104P   23250.09153655 -.00000067  00000-0  13871-4 0  9998,2 53601  53.2194  29.7662 0000733 103.0609 257.0465 15.08837014 56855,6917.89,95.438,540.262,539.247,0.0
53601.0,STARLINK-4675,PAYLOAD,2023-09-07 11:44:07,15.0884161,8.39e-05,53.2184,27.9824,87.395,272.7138,-1.2557e-05,-4.88e-06,0.0,0 STARLINK-4675,1 53601U 22104P   23250.48897689 -.00000488  00000-0 -12557-4 0  9991,2 53601  53.2184  27.9824 0000839  87.3950 272.7138 15.08841610 57606,6917.875,95.437,540.321,539.16,0.0
53601.0,STARLINK-4675,PAYLOAD,2023-09-07 18:05:39,15.08852591,8.67e-05,53.2179,26.7937,85.4857,274.6234,0.00039776,6.05e-05,0.0,0 STARLINK-4675,1 53601U 22104P   23250.75393414  .00006050  00000-0  39776-3 0  9998,2 53601  53.2179  26.7937 0000867  85.4857 274.6234 15.08852591 57640,6917.842,95.437,540.307,539.107,0.0
53601.0,STARLINK-4675,PAYLOAD,2023-09-08 13:10:18,15.08834405,0.0001227,53.2173,23.2259,73.596,286.5167,6.5508e-07,-2.77e-06,0.0,0 STARLINK-4675,1 53601U 22104P   23251.54882175 -.00000277  00000-0  65508-6 0  9994,2 53601  53.2173  23.2259 0001227  73.5960 286.5167 15.08834405 57761,6917.897,95.438,540.611,538.914,0.0
53601.0,STARLINK-4675,PAYLOAD,2023-09-08 17:56:27,15.08842844,0.0001668,53.2182,22.3338,63.2086,296.9076,0.00016354,2.316e-05,0.0,0 STARLINK-4675,1 53601U 22104P   23251.74754011  .00002316  00000-0  16354-3 0  9990,2 53601  53.2182  22.3338 0001668  63.2086 296.9076 15.08842844 57101,6917.872,95.437,540.891,538.583,0.0
53601.0,STARLINK-4675,PAYLOAD,2023-09-09 14:36:28,15.08836901,0.0001228,53.2182,18.4699,77.925,282.188,8.9378e-05,1.135e-05,0.0,0 STARLINK-4675,1 53601U 22104P   23252.60866598  .00001135  00000-0  89378-4 0  9995,2 53601  53.2182  18.4699 0001228  77.9250 282.1880 15.08836901 57921,6917.89,95.438,540.604,538.905,0.0
53601.0,STARLINK-4675,PAYLOAD,2023-09-10 01:44:10,15.08842853,0.0001188,53.2181,16.3868,73.0869,287.0253,0.00024357,3.591e-05,0.0,0 STARLINK-4675,1 53601U 22104P   23253.07234491  .00003591  00000-0  24357-3 0  9991,2 53601  53.2181  16.3868 0001188  73.0869 287.0253 15.08842853 57306,6917.872,95.437,540.559,538.915,0.0
53601.0,STARLINK-4675,PAYLOAD,2023-09-10 12:51:52,15.08845164,0.0001164,53.2182,14.3051,71.2276,288.8842,0.00029029,4.336e-05,0.0,0 STARLINK-4675,1 53601U 22104P   23253.53602493  .00004336  00000-0  29029-3 0  9992,2 53601  53.2182  14.3051 0001164  71.2276 288.8842 15.08845164 58060,6917.865,95.437,540.535,538.924,0.0
53601.0,STARLINK-4675,PAYLOAD,2023-09-10 17:38:01,15.08854166,0.0001014,53.2182,13.4114,82.2767,277.834,0.00039303,5.975e-05,0.0,0 STARLINK-4675,1 53601U 22104P   23253.73473887  .00005975  00000-0  39303-3 0  9993,2 53601  53.2182  13.4114 0001014  82.2767 277.8340 15.08854166 57401,6917.837,95.437,540.404,539.001,0.0
53601.0,STARLINK-4675,PAYLOAD,2023-09-11 14:18:02,15.08848177,0.0001128,53.2189,9.5465,83.1464,276.9656,0.00018021,2.582e-05,0.0,0 STARLINK-4675,1 53601U 22104P   23254.59586177  .00002582  00000-0  18021-3 0  9990,2 53601  53.2189   9.5465 0001128  83.1464 276.9656 15.08848177 58229,6917.855,95.437,540.501,538.94,0.0
53601.0,STARLINK-4675,PAYLOAD,2023-09-12 10:58:03,15.08845371,0.000112,53.2184,5.6828,69.2913,290.8199,0.00018049,2.586e-05,0.0,0 STARLINK-4675,1 53601U 22104P   23255.45698275  .00002586  00000-0  18049-3 0  9993,2 53601  53.2184   5.6828 0001120  69.2913 290.8199 15.08845371 57667,6917.864,95.437,540.504,538.954,0.0
53601.0,STARLINK-4675,PAYLOAD,2023-09-12 12:33:26,15.08847519,0.0001306,53.2186,5.3852,71.1489,288.9645,0.00020173,2.925e-05,0.0,0 STARLINK-4675,1 53601U 22104P   23255.52322247  .00002925  00000-0  20173-3 0  9992,2 53601  53.2186   5.3852 0001306  71.1489 288.9645 15.08847519 58367,6917.857,95.437,540.626,538.819,0.0
53601.0,STARLINK-4675,PAYLOAD,2023-09-12 18:54:58,15.08867991,0.0001116,53.2195,4.1935,90.2028,269.9092,0.00077513,0.00012079,0.0,0 STARLINK-4675,1 53601U 22104P   23255.78817572  .00012079  00000-0  77513-3 0  9991,2 53601  53.2195   4.1935 0001116  90.2028 269.9092 15.08867991 58402,6917.795,95.436,540.432,538.888,0.0
